CCSDS_OMM_VERS = 2.0
CREATION_DATE  = 
ORIGINATOR     = 

OBJECT_NAME    = SL-14 R/B
OBJECT_ID      = 1991-042B
CENTER_NAME    = EARTH
REF_FRAME      = TEME
TIME_SYSTEM    = UTC
MEAN_ELEMENT_THEORY = SGP/SGP4

EPOCH          = 2026-02-12T00:43:29.441568
MEAN_MOTION    = 14.81804313
ECCENTRICITY   = .00163054
INCLINATION    = 82.4898
RA_OF_ASC_NODE = 244.2493
ARG_OF_PERICENTER = 330.0827
MEAN_ANOMALY   = 29.9454

EPHEMERIS_TYPE = 0
CLASSIFICATION_TYPE = U
NORAD_CAT_ID   = 21423
ELEMENT_SET_NO = 999
REV_AT_EPOCH   = 84927
BSTAR          = .52965215E-4
MEAN_MOTION_DOT = .442E-5
MEAN_MOTION_DDOT = 0

CCSDS_OMM_VERS = 2.0
CREATION_DATE  = 
ORIGINATOR     = 

OBJECT_NAME    = ERS-1
OBJECT_ID      = 1991-050A
CENTER_NAME    = EARTH
REF_FRAME      = TEME
TIME_SYSTEM    = UTC
MEAN_ELEMENT_THEORY = SGP/SGP4

EPOCH          = 2026-02-12T01:08:33.408960
MEAN_MOTION    = 14.39428488
ECCENTRICITY   = .00309077
INCLINATION    = 98.7894
RA_OF_ASC_NODE = 60.6373
ARG_OF_PERICENTER = 278.6862
MEAN_ANOMALY   = 81.0824

EPHEMERIS_TYPE = 0
CLASSIFICATION_TYPE = U
NORAD_CAT_ID   = 21574
ELEMENT_SET_NO = 999
REV_AT_EPOCH   = 81204
BSTAR          = .14368795E-3
MEAN_MOTION_DOT = .403E-5
MEAN_MOTION_DDOT = 0

CCSDS_OMM_VERS = 2.0
CREATION_DATE  = 
ORIGINATOR     = 

OBJECT_NAME    = ARIANE 40 R/B
OBJECT_ID      = 1991-050F
CENTER_NAME    = EARTH
REF_FRAME      = TEME
TIME_SYSTEM    = UTC
MEAN_ELEMENT_THEORY = SGP/SGP4

EPOCH          = 2026-02-12T03:49:43.564800
MEAN_MOTION    = 14.42874631
ECCENTRICITY   = .00039725
INCLINATION    = 98.2068
RA_OF_ASC_NODE = 96.3471
ARG_OF_PERICENTER = 137.4020
MEAN_ANOMALY   = 222.7480

EPHEMERIS_TYPE = 0
CLASSIFICATION_TYPE = U
NORAD_CAT_ID   = 21610
ELEMENT_SET_NO = 999
REV_AT_EPOCH   = 81531
BSTAR          = .11403634E-3
MEAN_MOTION_DOT = .339E-5
MEAN_MOTION_DDOT = 0

CCSDS_OMM_VERS = 2.0
CREATION_DATE  = 
ORIGINATOR     = 

OBJECT_NAME    = INTERCOSMOS 25
OBJECT_ID      = 1991-086A
CENTER_NAME    = EARTH
REF_FRAME      = TEME
TIME_SYSTEM    = UTC
MEAN_ELEMENT_THEORY = SGP/SGP4

EPOCH          = 2026-02-12T05:29:28.705344
MEAN_MOTION    = 12.11929363
ECCENTRICITY   = .14868445
INCLINATION    = 82.6086
RA_OF_ASC_NODE = 325.3940
ARG_OF_PERICENTER = 171.7826
MEAN_ANOMALY   = 191.0863

EPHEMERIS_TYPE = 0
CLASSIFICATION_TYPE = U
NORAD_CAT_ID   = 21819
ELEMENT_SET_NO = 999
REV_AT_EPOCH   = 49360
BSTAR          = .31527649E-3
MEAN_MOTION_DOT = .1625E-4
MEAN_MOTION_DDOT = 0

CCSDS_OMM_VERS = 2.0
CREATION_DATE  = 
ORIGINATOR     = 

OBJECT_NAME    = SL-8 R/B
OBJECT_ID      = 1992-008B
CENTER_NAME    = EARTH
REF_FRAME      = TEME
TIME_SYSTEM    = UTC
MEAN_ELEMENT_THEORY = SGP/SGP4

EPOCH          = 2026-02-12T05:01:07.820256
MEAN_MOTION    = 13.75969700
ECCENTRICITY   = .00339892
INCLINATION    = 82.9259
RA_OF_ASC_NODE = 286.7347
ARG_OF_PERICENTER = 203.9858
MEAN_ANOMALY   = 271.5121

EPHEMERIS_TYPE = 0
CLASSIFICATION_TYPE = U
NORAD_CAT_ID   = 21876
ELEMENT_SET_NO = 999
REV_AT_EPOCH   = 70591
BSTAR          = .16021614E-4
MEAN_MOTION_DOT = .31E-6
MEAN_MOTION_DDOT = 0

CCSDS_OMM_VERS = 2.0
CREATION_DATE  = 
ORIGINATOR     = 

OBJECT_NAME    = SL-8 R/B
OBJECT_ID      = 1992-020B
CENTER_NAME    = EARTH
REF_FRAME      = TEME
TIME_SYSTEM    = UTC
MEAN_ELEMENT_THEORY = SGP/SGP4

EPOCH          = 2026-02-12T07:10:33.754656
MEAN_MOTION    = 13.75545967
ECCENTRICITY   = .00290691
INCLINATION    = 82.9335
RA_OF_ASC_NODE = 172.6073
ARG_OF_PERICENTER = 11.3794
MEAN_ANOMALY   = 14.1217

EPHEMERIS_TYPE = 0
CLASSIFICATION_TYPE = U
NORAD_CAT_ID   = 21938
ELEMENT_SET_NO = 999
REV_AT_EPOCH   = 69764
BSTAR          = .10900607E-3
MEAN_MOTION_DOT = .12E-5
MEAN_MOTION_DDOT = 0

CCSDS_OMM_VERS = 2.0
CREATION_DATE  = 
ORIGINATOR     = 

OBJECT_NAME    = USA 81
OBJECT_ID      = 1992-023A
CENTER_NAME    = EARTH
REF_FRAME      = TEME
TIME_SYSTEM    = UTC
MEAN_ELEMENT_THEORY = SGP/SGP4

EPOCH          = 2026-02-12T05:31:56.000928
MEAN_MOTION    = 14.32358745
ECCENTRICITY   = .00026989
INCLINATION    = 85.0120
RA_OF_ASC_NODE = 146.1217
ARG_OF_PERICENTER = 100.5646
MEAN_ANOMALY   = 259.5851

EPHEMERIS_TYPE = 0
CLASSIFICATION_TYPE = U
NORAD_CAT_ID   = 21949
ELEMENT_SET_NO = 999
REV_AT_EPOCH   = 9114
BSTAR          = .73303988E-4
MEAN_MOTION_DOT = .218E-5
MEAN_MOTION_DDOT = 0

CCSDS_OMM_VERS = 2.0
CREATION_DATE  = 
ORIGINATOR     = 

OBJECT_NAME    = COSMOS 2219
OBJECT_ID      = 1992-076A
CENTER_NAME    = EARTH
REF_FRAME      = TEME
TIME_SYSTEM    = UTC
MEAN_ELEMENT_THEORY = SGP/SGP4

EPOCH          = 2026-02-12T04:43:09.650208
MEAN_MOTION    = 14.14076695
ECCENTRICITY   = .00201865
INCLINATION    = 71.0579
RA_OF_ASC_NODE = 71.3629
ARG_OF_PERICENTER = 241.7313
MEAN_ANOMALY   = 118.1772

EPHEMERIS_TYPE = 0
CLASSIFICATION_TYPE = U
NORAD_CAT_ID   = 22219
ELEMENT_SET_NO = 999
REV_AT_EPOCH   = 71477
BSTAR          = .39599779E-4
MEAN_MOTION_DOT = .28E-6
MEAN_MOTION_DDOT = 0

CCSDS_OMM_VERS = 2.0
CREATION_DATE  = 
ORIGINATOR     = 

OBJECT_NAME    = SL-16 R/B
OBJECT_ID      = 1992-076B
CENTER_NAME    = EARTH
REF_FRAME      = TEME
TIME_SYSTEM    = UTC
MEAN_ELEMENT_THEORY = SGP/SGP4

EPOCH          = 2026-02-12T00:23:34.699776
MEAN_MOTION    = 14.16855997
ECCENTRICITY   = .0011293
INCLINATION    = 70.9978
RA_OF_ASC_NODE = 242.4542
ARG_OF_PERICENTER = 142.4325
MEAN_ANOMALY   = 11.2115

EPHEMERIS_TYPE = 0
CLASSIFICATION_TYPE = U
NORAD_CAT_ID   = 22220
ELEMENT_SET_NO = 999
REV_AT_EPOCH   = 71819
BSTAR          = -.24753234E-4
MEAN_MOTION_DOT = -.98E-6
MEAN_MOTION_DDOT = 0

CCSDS_OMM_VERS = 2.0
CREATION_DATE  = 
ORIGINATOR     = 

OBJECT_NAME    = COSMOS 2221
OBJECT_ID      = 1992-080A
CENTER_NAME    = EARTH
REF_FRAME      = TEME
TIME_SYSTEM    = UTC
MEAN_ELEMENT_THEORY = SGP/SGP4

EPOCH          = 2026-02-12T05:21:00.585216
MEAN_MOTION    = 14.96101012
ECCENTRICITY   = .00128026
INCLINATION    = 82.5053
RA_OF_ASC_NODE = 303.4718
ARG_OF_PERICENTER = 280.4885
MEAN_ANOMALY   = 79.4894

EPHEMERIS_TYPE = 0
CLASSIFICATION_TYPE = U
NORAD_CAT_ID   = 22236
ELEMENT_SET_NO = 999
REV_AT_EPOCH   = 77698
BSTAR          = .17594463E-3
MEAN_MOTION_DOT = .2006E-4
MEAN_MOTION_DDOT = 0

CCSDS_OMM_VERS = 2.0
CREATION_DATE  = 
ORIGINATOR     = 

OBJECT_NAME    = SL-16 R/B
OBJECT_ID      = 1992-093B
CENTER_NAME    = EARTH
REF_FRAME      = TEME
TIME_SYSTEM    = UTC
MEAN_ELEMENT_THEORY = SGP/SGP4

EPOCH          = 2026-02-12T05:27:41.618592
MEAN_MOTION    = 14.15441555
ECCENTRICITY   = .00052472
INCLINATION    = 71.0200
RA_OF_ASC_NODE = 57.7184
ARG_OF_PERICENTER = 320.8125
MEAN_ANOMALY   = 39.2618

EPHEMERIS_TYPE = 0
CLASSIFICATION_TYPE = U
NORAD_CAT_ID   = 22285
ELEMENT_SET_NO = 999
REV_AT_EPOCH   = 70955
BSTAR          = .92332798E-4
MEAN_MOTION_DOT = .133E-5
MEAN_MOTION_DDOT = 0

CCSDS_OMM_VERS = 2.0
CREATION_DATE  = 
ORIGINATOR     = 

OBJECT_NAME    = COSMOS 2228
OBJECT_ID      = 1992-094A
CENTER_NAME    = EARTH
REF_FRAME      = TEME
TIME_SYSTEM    = UTC
MEAN_ELEMENT_THEORY = SGP/SGP4

EPOCH          = 2026-02-12T06:08:33.703296
MEAN_MOTION    = 14.97071131
ECCENTRICITY   = .00188392
INCLINATION    = 82.5155
RA_OF_ASC_NODE = 261.6661
ARG_OF_PERICENTER = 31.5888
MEAN_ANOMALY   = 328.6461

EPHEMERIS_TYPE = 0
CLASSIFICATION_TYPE = U
NORAD_CAT_ID   = 22286
ELEMENT_SET_NO = 999
REV_AT_EPOCH   = 77225
BSTAR          = .17019459E-3
MEAN_MOTION_DOT = .1994E-4
MEAN_MOTION_DDOT = 0

