SL-14 R/B               
1 21423U 91042B   26043.03020187  .00000442  00000+0  52965-4 0  9994
2 21423  82.4898 244.2493 0016305 330.0827  29.9454 14.81804313849275
ERS-1                   
1 21574U 91050A   26043.04760890  .00000403  00000+0  14369-3 0  9995
2 21574  98.7894  60.6373 0030907 278.6862  81.0824 14.39428488812048
ARIANE 40 R/B           
1 21610U 91050F   26043.15953200  .00000339  00000+0  11404-3 0  9992
2 21610  98.2068  96.3471 0003972 137.4020 222.7480 14.42874631815316
INTERCOSMOS 25          
1 21819U 91086A   26043.22880446  .00001625  00000+0  31528-3 0  9999
2 21819  82.6086 325.3940 1486844 171.7826 191.0863 12.11929363493603
SL-8 R/B                
1 21876U 92008B   26043.20911829  .00000031  00000+0  16022-4 0  9998
2 21876  82.9259 286.7347 0033989 203.9858 271.5121 13.75969700705913
SL-8 R/B                
1 21938U 92020B   26043.29900179  .00000120  00000+0  10901-3 0  9994
2 21938  82.9335 172.6073 0029069  11.3794  14.1217 13.75545967697642
USA 81                  
1 21949U 92023A   26043.23050927  .00000218  00000+0  73304-4 0  9995
2 21949  85.0120 146.1217 0002698 100.5646 259.5851 14.32358745 91144
COSMOS 2219             
1 22219U 92076A   26043.19663947  .00000028  00000+0  39600-4 0  9991
2 22219  71.0579  71.3629 0020186 241.7313 118.1772 14.14076695714779
SL-16 R/B               
1 22220U 92076B   26043.01637384 -.00000098  00000+0 -24753-4 0  9992
2 22220  70.9978 242.4542 0011293 142.4325  11.2115 14.16855997718192
COSMOS 2221             
1 22236U 92080A   26043.22292344  .00002006  00000+0  17594-3 0  9993
2 22236  82.5053 303.4718 0012802 280.4885  79.4894 14.96101012776987
SL-16 R/B               
1 22285U 92093B   26043.22756503  .00000133  00000+0  92333-4 0  9997
2 22285  71.0200  57.7184 0005247 320.8125  39.2618 14.15441555709552
COSMOS 2228             
1 22286U 92094A   26043.25594564  .00001994  00000+0  17019-3 0  9992
2 22286  82.5155 261.6661 0018839  31.5888 328.6461 14.97071131772255
